NORAD_CAT_ID,OBJECT_NAME,OBJECT_TYPE,EPOCH,MEAN_MOTION,ECCENTRICITY,INCLINATION,RA_OF_ASC_NODE,ARG_OF_PERICENTER,MEAN_ANOMALY,BSTAR,MEAN_MOTION_DOT,MEAN_MOTION_DDOT,TLE_LINE0,TLE_LINE1,TLE_LINE2,SEMIMAJOR_AXIS,PERIOD,APOGEE,PERIGEE,DECAYED
52476.0,STARLINK-3835,PAYLOAD,2024-03-31 10:32:19,15.08841018,0.0001306,53.217,348.8185,120.5945,239.5176,0.00015679,2.208e-05,0.0,0 STARLINK-3835,1 52476U 22049AB  24091.43911225  .00002208  00000-0  15679-3 0  9997,2 52476  53.2170 348.8185 0001306 120.5945 239.5176 15.08841018106700,6917.877,95.437,540.646,538.839,0.0
52476.0,STARLINK-3835,PAYLOAD,2024-03-31 23:15:24,15.08848796,0.000113,53.2171,346.4425,94.5715,265.5407,0.00013398,1.846e-05,0.0,0 STARLINK-3835,1 52476U 22049AB  24091.96902864  .00001846  00000-0  13398-3 0  9997,2 52476  53.2171 346.4425 0001130  94.5715 265.5407 15.08848796106786,6917.854,95.437,540.5,538.937,0.0
52476.0,STARLINK-3835,PAYLOAD,2024-04-01 10:23:05,15.08850249,0.0001125,53.2164,344.3629,87.7934,272.3187,0.00012796,1.75e-05,0.0,0 STARLINK-3835,1 52476U 22049AB  24092.43270672  .00001750  00000-0  12796-3 0  9990,2 52476  53.2164 344.3629 0001125  87.7934 272.3187 15.08850249106857,6917.849,95.437,540.492,538.936,0.0
52476.0,STARLINK-3835,PAYLOAD,2024-04-01 19:55:25,15.0882767,0.0001308,53.2154,342.5782,96.5475,263.5666,-5.8455e-05,-1.218e-05,0.0,0 STARLINK-3835,1 52476U 22049AB  24092.83016019 -.00001218  00000-0 -58455-4 0  9991,2 52476  53.2154 342.5782 0001308  96.5475 263.5666 15.08827670105830,6917.918,95.438,540.688,538.878,0.0
52476.0,STARLINK-3835,PAYLOAD,2024-04-02 02:16:58,15.08830913,0.0001356,53.2188,341.3878,100.2961,259.8184,-9.2153e-05,-1.754e-05,0.0,0 STARLINK-3835,1 52476U 22049AB  24093.09511997 -.00001754  00000-0 -92153-4 0  9993,2 52476  53.2188 341.3878 0001356 100.2961 259.8184 15.08830913106957,6917.908,95.438,540.711,538.835,0.0
52476.0,STARLINK-3835,PAYLOAD,2024-04-02 19:46:12,15.08846958,0.0001221,53.2176,338.1181,95.6543,264.4588,0.00015621,2.2e-05,0.0,0 STARLINK-3835,1 52476U 22049AB  24093.82375253  .00002200  00000-0  15621-3 0  9996,2 52476  53.2176 338.1181 0001221  95.6543 264.4588 15.08846958105987,6917.859,95.437,540.569,538.879,0.0
52476.0,STARLINK-3835,PAYLOAD,2024-04-02 21:21:35,15.08848812,0.0001215,53.2176,337.8208,96.0108,264.1023,0.00019221,2.773e-05,0.0,0 STARLINK-3835,1 52476U 22049AB  24093.88999181  .00002773  00000-0  19221-3 0  9999,2 52476  53.2176 337.8208 0001215  96.0108 264.1023 15.08848812107072,6917.853,95.437,540.559,538.878,0.0
52476.0,STARLINK-3835,PAYLOAD,2024-04-02 22:56:58,15.0885506,0.0001229,53.2183,337.524,94.1735,265.9398,0.00018429,2.647e-05,0.0,0 STARLINK-3835,1 52476U 22049AB  24093.95622900  .00002647  00000-0  18429-3 0  9998,2 52476  53.2183 337.5240 0001229  94.1735 265.9398 15.08855060106002,6917.834,95.437,540.55,538.849,0.0
52476.0,STARLINK-3835,PAYLOAD,2024-04-03 19:36:59,15.08843729,0.0001502,53.2181,333.6587,119.7978,240.3164,0.00024093,3.549e-05,0.0,0 STARLINK-3835,1 52476U 22049AB  24094.81735509  .00003549  00000-0  24093-3 0  9990,2 52476  53.2181 333.6587 0001502 119.7978 240.3164 15.08843729106139,6917.869,95.437,540.773,538.695,0.0
52476.0,STARLINK-3835,PAYLOAD,2024-04-03 22:47:45,15.08842917,0.0001339,53.2174,333.063,97.5507,262.5638,0.00020695,3.007e-05,0.0,0 STARLINK-3835,1 52476U 22049AB  24094.94983461  .00003007  00000-0  20695-3 0  9999,2 52476  53.2174 333.0630 0001339  97.5507 262.5638 15.08842917107235,6917.871,95.437,540.663,538.81,0.0
52476.0,STARLINK-3835,PAYLOAD,2024-04-04 08:20:04,15.088387,0.0001162,53.2174,331.2802,96.5992,263.5132,1.6091e-05,-3.2e-07,0.0,0 STARLINK-3835,1 52476U 22049AB  24095.34727670 -.00000032  00000-0  16091-4 0  9994,2 52476  53.2174 331.2802 0001162  96.5992 263.5132 15.08838700106219,6917.884,95.438,540.553,538.946,0.0
52476.0,STARLINK-3835,PAYLOAD,2024-04-04 22:38:32,15.08845745,0.0001161,53.2171,328.6038,97.8077,262.3047,-2.1692e-06,-3.22e-06,0.0,0 STARLINK-3835,1 52476U 22049AB  24095.94343347 -.00000322  00000-0 -21692-5 0  9992,2 52476  53.2171 328.6038 0001161  97.8077 262.3047 15.08845745107382,6917.863,95.437,540.531,538.925,0.0
52476.0,STARLINK-3835,PAYLOAD,2024-04-05 14:32:24,15.08840783,0.0001186,53.2172,325.6309,98.1042,262.0085,0.00011396,1.526e-05,0.0,0 STARLINK-3835,1 52476U 22049AB  24096.60583537  .00001526  00000-0  11396-3 0  9996,2 52476  53.2172 325.6309 0001186  98.1042 262.0085 15.08840783107481,6917.878,95.438,540.563,538.923,0.0
52476.0,STARLINK-3835,PAYLOAD,2024-04-05 19:18:33,15.08834108,0.0001222,53.2179,324.7387,96.4184,263.6947,6.7291e-06,-1.81e-06,0.0,0 STARLINK-3835,1 52476U 22049AB  24096.80455966 -.00000181  00000-0  67291-5 0  9996,2 52476  53.2179 324.7387 0001222  96.4184 263.6947 15.08834108106435,6917.898,95.438,540.609,538.918,0.0
52476.0,STARLINK-3835,PAYLOAD,2024-04-05 20:53:57,15.08833279,0.0001242,53.2178,324.4416,100.7503,259.3629,0.00010339,1.358e-05,0.0,0 STARLINK-3835,1 52476U 22049AB  24096.87080010  .00001358  00000-0  10339-3 0  9992,2 52476  53.2178 324.4416 0001242 100.7503 259.3629 15.08833279107528,6917.901,95.438,540.625,538.907,0.0
52476.0,STARLINK-3835,PAYLOAD,2024-04-05 22:29:21,15.08793268,0.0001548,53.2185,324.144,105.9416,254.1747,0.00076148,0.00011836,0.0,0 STARLINK-3835,1 52476U 22049AB  24096.93705331  .00011836  00000-0  76148-3 0  9991,2 52476  53.2185 324.1440 0001548 105.9416 254.1747 15.08793268106457,6918.023,95.441,540.959,538.817,0.0
52476.0,STARLINK-3835,PAYLOAD,2024-04-06 08:01:38,15.08840382,0.0001246,53.2188,322.3596,94.0091,266.1043,0.00012828,1.754e-05,0.0,0 STARLINK-3835,1 52476U 22049AB  24097.33447833  .00001754  00000-0  12828-3 0  9999,2 52476  53.2188 322.3596 0001246  94.0091 266.1043 15.08840382106513,6917.879,95.438,540.606,538.882,0.0
52476.0,STARLINK-3835,PAYLOAD,2024-04-06 14:23:11,15.08847359,0.0001536,53.219,321.1703,93.4103,266.7065,3.8484e-05,3.25e-06,0.0,0 STARLINK-3835,1 52476U 22049AB  24097.59943665  .00000325  00000-0  38484-4 0  9991,2 52476  53.2190 321.1703 0001536  93.4103 266.7065 15.08847359107637,6917.858,95.437,540.785,538.66,0.0
52476.0,STARLINK-3835,PAYLOAD,2024-04-06 22:20:07,15.08823575,0.000136,53.2188,319.6834,97.0579,263.0568,0.0003648,5.52e-05,0.0,0 STARLINK-3835,1 52476U 22049AB  24097.93064304  .00005520  00000-0  36480-3 0  9998,2 52476  53.2188 319.6834 0001360  97.0579 263.0568 15.08823575107680,6917.931,95.439,540.736,538.855,0.0
52476.0,STARLINK-3835,PAYLOAD,2024-04-07 07:52:25,15.08839623,0.0001352,53.2169,317.8963,80.6537,279.4608,2.4482e-06,-2.49e-06,0.0,0 STARLINK-3835,1 52476U 22049AB  24098.32807855 -.00000249  00000-0  24482-5 0  9993,2 52476  53.2169 317.8963 0001352  80.6537 279.4608 15.08839623107749,6917.882,95.438,540.682,538.811,0.0
52476.0,STARLINK-3835,PAYLOAD,2024-04-07 20:35:31,15.08839051,0.0001258,53.2164,315.5171,80.5517,279.5617,5.2738e-05,5.52e-06,0.0,0 STARLINK-3835,1 52476U 22049AB  24098.85799970  .00000552  00000-0  52738-4 0  9999,2 52476  53.2164 315.5171 0001258  80.5517 279.5617 15.08839051106747,6917.883,95.438,540.619,538.878,0.0
52476.0,STARLINK-3835,PAYLOAD,2024-04-07 22:10:54,15.08840667,0.0001252,53.2175,315.2195,81.1198,278.9936,7.6452e-05,9.29e-06,0.0,0 STARLINK-3835,1 52476U 22049AB  24098.92424055  .00000929  00000-0  76452-4 0  9993,2 52476  53.2175 315.2195 0001252  81.1198 278.9936 15.08840667107831,6917.878,95.438,540.609,538.877,0.0
52476.0,STARLINK-3835,PAYLOAD,2024-04-08 07:43:12,15.0884534,0.0001266,53.2175,313.4358,80.4864,279.6271,9.5805e-05,1.237e-05,0.0,0 STARLINK-3835,1 52476U 22049AB  24099.32167697  .00001237  00000-0  95805-4 0  9990,2 52476  53.2175 313.4358 0001266  80.4864 279.6271 15.08845340107898,6917.864,95.437,540.605,538.853,0.0
52476.0,STARLINK-3835,PAYLOAD,2024-04-08 20:26:17,15.08849546,0.0001298,53.2176,311.0576,79.7545,280.3593,7.0751e-05,8.39e-06,0.0,0 STARLINK-3835,1 52476U 22049AB  24099.85159329  .00000839  00000-0  70751-4 0  9991,2 52476  53.2176 311.0576 0001298  79.7545 280.3593 15.08849546106894,6917.851,95.437,540.614,538.818,0.0
52476.0,STARLINK-3835,PAYLOAD,2024-04-08 23:37:03,15.08848681,0.0001305,53.2176,310.4629,77.5334,282.5804,0.00011351,1.519e-05,0.0,0 STARLINK-3835,1 52476U 22049AB  24099.98407292  .00001519  00000-0  11351-3 0  9996,2 52476  53.2176 310.4629 0001305  77.5334 282.5804 15.08848681107997,6917.854,95.437,540.622,538.816,0.0
52476.0,STARLINK-3835,PAYLOAD,2024-04-09 07:33:59,15.08848366,0.0001247,53.2179,308.9758,79.1732,280.9401,3.7976e-05,3.17e-06,0.0,0 STARLINK-3835,1 52476U 22049AB  24100.31527357  .00000317  00000-0  37976-4 0  9998,2 52476  53.2179 308.9758 0001247  79.1732 280.9401 15.08848366108042,6917.855,95.437,540.582,538.857,0.0
52476.0,STARLINK-3835,PAYLOAD,2024-04-09 20:17:05,15.08834282,0.0001363,53.2181,306.5967,81.0001,279.1146,2.1552e-05,5.5e-07,0.0,0 STARLINK-3835,1 52476U 22049AB  24100.84520430  .00000055  00000-0  21552-4 0  9993,2 52476  53.2181 306.5967 0001363  81.0001 279.1146 15.08834282107048,6917.898,95.438,540.706,538.82,0.0
52476.0,STARLINK-3835,PAYLOAD,2024-04-10 13:46:20,15.08838959,0.0001618,53.2214,303.3259,89.3667,270.751,-5.0552e-05,-1.092e-05,0.0,0 STARLINK-3835,1 52476U 22049AB  24101.57384558 -.00001092  00000-0 -50552-4 0  9999,2 52476  53.2214 303.3259 0001618  89.3667 270.7510 15.08838959108235,6917.884,95.438,540.868,538.629,0.0
52476.0,STARLINK-3835,PAYLOAD,2024-04-10 20:07:52,15.08840438,0.0001295,53.219,302.1378,84.0068,276.1072,2.8893e-05,1.72e-06,0.0,0 STARLINK-3835,1 52476U 22049AB  24101.83880201  .00000172  00000-0  28893-4 0  9993,2 52476  53.2190 302.1378 0001295  84.0068 276.1072 15.08840438108277,6917.879,95.438,540.64,538.848,0.0
52476.0,STARLINK-3835,PAYLOAD,2024-04-11 12:01:43,15.08839567,0.0001342,53.2189,299.1642,90.6237,269.4909,0.00010073,1.316e-05,0.0,0 STARLINK-3835,1 52476U 22049AB  24102.50120149  .00001316  00000-0  10073-3 0  9997,2 52476  53.2189 299.1642 0001342  90.6237 269.4909 15.08839567107294,6917.882,95.438,540.675,538.818,0.0
